{
  "type": "FeatureCollection",
  "features": [
    {
      "type": "Feature",
      "properties": {
        "norad_id": 37918,
        "name": "FENGYUN 1C DEB",
        "group": "fengyun-1c-debris",
        "lat": 41.69637210389598,
        "lon": 135.884350624683,
        "alt_km": 788.9986199413879,
        "timestamp": "2025-12-23T18:59:32.255766+00:00",
        "meta_object_name": "FENGYUN 1C DEB",
        "meta_object_id": "1999-025ENT",
        "meta_epoch": "2025-12-20T20:02:06.921312",
        "meta_mean_motion": 14.34412668,
        "meta_eccentricity": 0.00547908,
        "meta_inclination": 99.0289,
        "meta_ra_of_asc_node": 304.6539,
        "meta_arg_of_pericenter": 259.6508,
        "meta_mean_anomaly": 99.8496,
        "meta_ephemeris_type": 0,
        "meta_classification_type": "U",
        "meta_norad_cat_id": 37918,
        "meta_element_set_no": 999,
        "meta_rev_at_epoch": 3658,
        "meta_bstar": 0.00044138632,
        "meta_mean_motion_dot": 1.215e-05,
        "meta_mean_motion_ddot": 0,
        "tle_line1": "1 37918U 99025ENT 25354.83480233  .00001215  00000+0  44139-3 0  9995",
        "tle_line2": "2 37918  99.0289 304.6539 0054790 259.6508  99.8496 14.34412668 36583"
      },
      "geometry": {
        "type": "Point",
        "coordinates": [
          135.884350624683,
          41.69637210389598
        ]
      }
    },
    {
      "type": "Feature",
      "properties": {
        "norad_id": 37919,
        "name": "FENGYUN 1C DEB",
        "group": "fengyun-1c-debris",
        "lat": 8.801457816877567,
        "lon": -65.29209680698641,
        "alt_km": 771.7929933647811,
        "timestamp": "2025-12-23T18:59:32.255774+00:00",
        "meta_object_name": "FENGYUN 1C DEB",
        "meta_object_id": "1999-025ENU",
        "meta_epoch": "2025-12-21T13:05:37.870080",
        "meta_mean_motion": 14.26784577,
        "meta_eccentricity": 0.0049416,
        "meta_inclination": 99.0587,
        "meta_ra_of_asc_node": 293.7998,
        "meta_arg_of_pericenter": 351.2429,
        "meta_mean_anomaly": 8.7883,
        "meta_ephemeris_type": 0,
        "meta_classification_type": "U",
        "meta_norad_cat_id": 37919,
        "meta_element_set_no": 999,
        "meta_rev_at_epoch": 65034,
        "meta_bstar": 0.0004279,
        "meta_mean_motion_dot": 1.003e-05,
        "meta_mean_motion_ddot": 0,
        "tle_line1": "1 37919U 99025ENU 25355.54557720  .00001003  00000+0  42790-3 0  9997",
        "tle_line2": "2 37919  99.0587 293.7998 0049416 351.2429   8.7883 14.26784577650349"
      },
      "geometry": {
        "type": "Point",
        "coordinates": [
          -65.29209680698641,
          8.801457816877567
        ]
      }
    },
    {
      "type": "Feature",
      "properties": {
        "norad_id": 37921,
        "name": "FENGYUN 1C DEB",
        "group": "fengyun-1c-debris",
        "lat": 52.24953992879668,
        "lon": -129.53355568882836,
        "alt_km": 872.7761776505959,
        "timestamp": "2025-12-23T18:59:32.255783+00:00",
        "meta_object_name": "FENGYUN 1C DEB",
        "meta_object_id": "1999-025ENW",
        "meta_epoch": "2025-12-21T19:55:24.950496",
        "meta_mean_motion": 13.95159889,
        "meta_eccentricity": 0.00843197,
        "meta_inclination": 99.021,
        "meta_ra_of_asc_node": 36.7092,
        "meta_arg_of_pericenter": 74.058,
        "meta_mean_anomaly": 286.9853,
        "meta_ephemeris_type": 0,
        "meta_classification_type": "U",
        "meta_norad_cat_id": 37921,
        "meta_element_set_no": 999,
        "meta_rev_at_epoch": 63274,
        "meta_bstar": 0.00031229262,
        "meta_mean_motion_dot": 3.91e-06,
        "meta_mean_motion_ddot": 0,
        "tle_line1": "1 37921U 99025ENW 25355.83014989  .00000391  00000+0  31229-3 0  9991",
        "tle_line2": "2 37921  99.0210  36.7092 0084319  74.0580 286.9853 13.95159889632742"
      },
      "geometry": {
        "type": "Point",
        "coordinates": [
          -129.53355568882836,
          52.24953992879668
        ]
      }
    },
    {
      "type": "Feature",
      "properties": {
        "norad_id": 37925,
        "name": "FENGYUN 1C DEB",
        "group": "fengyun-1c-debris",
        "lat": 46.554949597430316,
        "lon": -141.32843320526095,
        "alt_km": 629.2525693007492,
        "timestamp": "2025-12-23T18:59:32.255792+00:00",
        "meta_object_name": "FENGYUN 1C DEB",
        "meta_object_id": "1999-025EPA",
        "meta_epoch": "2025-12-22T21:41:38.860800",
        "meta_mean_motion": 14.80526884,
        "meta_eccentricity": 0.0055816,
        "meta_inclination": 99.0855,
        "meta_ra_of_asc_node": 227.3947,
        "meta_arg_of_pericenter": 311.3833,
        "meta_mean_anomaly": 48.2583,
        "meta_ephemeris_type": 0,
        "meta_classification_type": "U",
        "meta_norad_cat_id": 37925,
        "meta_element_set_no": 999,
        "meta_rev_at_epoch": 65833,
        "meta_bstar": 0.0018808,
        "meta_mean_motion_dot": 0.00014755,
        "meta_mean_motion_ddot": 0,
        "tle_line1": "1 37925U 99025EPA 25356.90392200  .00014755  00000+0  18808-2 0  9995",
        "tle_line2": "2 37925  99.0855 227.3947 0055816 311.3833  48.2583 14.80526884658336"
      },
      "geometry": {
        "type": "Point",
        "coordinates": [
          -141.32843320526095,
          46.554949597430316
        ]
      }
    },
    {
      "type": "Feature",
      "properties": {
        "norad_id": 37926,
        "name": "FENGYUN 1C DEB",
        "group": "fengyun-1c-debris",
        "lat": -2.1517576437448764,
        "lon": -119.44930040619225,
        "alt_km": 775.2120313265759,
        "timestamp": "2025-12-23T18:59:32.255801+00:00",
        "meta_object_name": "FENGYUN 1C DEB",
        "meta_object_id": "1999-025EPB",
        "meta_epoch": "2025-12-22T17:27:22.423968",
        "meta_mean_motion": 14.24283308,
        "meta_eccentricity": 0.00545606,
        "meta_inclination": 98.7225,
        "meta_ra_of_asc_node": 59.8252,
        "meta_arg_of_pericenter": 192.9997,
        "meta_mean_anomaly": 296.6273,
        "meta_ephemeris_type": 0,
        "meta_classification_type": "U",
        "meta_norad_cat_id": 37926,
        "meta_element_set_no": 999,
        "meta_rev_at_epoch": 74412,
        "meta_bstar": 0.0014009784,
        "meta_mean_motion_dot": 3.241e-05,
        "meta_mean_motion_ddot": 0,
        "tle_line1": "1 37926U 99025EPB 25356.72734287  .00003241  00000+0  14010-2 0  9990",
        "tle_line2": "2 37926  98.7225  59.8252 0054560 192.9997 296.6273 14.24283308744127"
      },
      "geometry": {
        "type": "Point",
        "coordinates": [
          -119.44930040619225,
          -2.1517576437448764
        ]
      }
    },
    {
      "type": "Feature",
      "properties": {
        "norad_id": 37927,
        "name": "FENGYUN 1C DEB",
        "group": "fengyun-1c-debris",
        "lat": -64.41968794614809,
        "lon": -56.51505399835551,
        "alt_km": 655.4347378687698,
        "timestamp": "2025-12-23T18:59:32.255810+00:00",
        "meta_object_name": "FENGYUN 1C DEB",
        "meta_object_id": "1999-025EPC",
        "meta_epoch": "2025-12-20T03:25:18.230304",
        "meta_mean_motion": 14.72067181,
        "meta_eccentricity": 0.00083592,
        "meta_inclination": 98.8071,
        "meta_ra_of_asc_node": 138.4338,
        "meta_arg_of_pericenter": 253.9424,
        "meta_mean_anomaly": 106.086,
        "meta_ephemeris_type": 0,
        "meta_classification_type": "U",
        "meta_norad_cat_id": 37927,
        "meta_element_set_no": 999,
        "meta_rev_at_epoch": 65225,
        "meta_bstar": 0.0024443804,
        "meta_mean_motion_dot": 0.00015349,
        "meta_mean_motion_ddot": 0,
        "tle_line1": "1 37927U 99025EPC 25354.14257211  .00015349  00000+0  24444-2 0  9996",
        "tle_line2": "2 37927  98.8071 138.4338 0008359 253.9424 106.0860 14.72067181652255"
      },
      "geometry": {
        "type": "Point",
        "coordinates": [
          -56.51505399835551,
          -64.41968794614809
        ]
      }
    },
    {
      "type": "Feature",
      "properties": {
        "norad_id": 37928,
        "name": "FENGYUN 1C DEB",
        "group": "fengyun-1c-debris",
        "lat": -57.716170710788404,
        "lon": 38.398793129543215,
        "alt_km": 802.5075802869378,
        "timestamp": "2025-12-23T18:59:32.255819+00:00",
        "meta_object_name": "FENGYUN 1C DEB",
        "meta_object_id": "1999-025EPD",
        "meta_epoch": "2025-12-21T09:04:11.551008",
        "meta_mean_motion": 14.37132631,
        "meta_eccentricity": 0.0073076,
        "meta_inclination": 98.9148,
        "meta_ra_of_asc_node": 230.2847,
        "meta_arg_of_pericenter": 7.9876,
        "meta_mean_anomaly": 352.2454,
        "meta_ephemeris_type": 0,
        "meta_classification_type": "U",
        "meta_norad_cat_id": 37928,
        "meta_element_set_no": 999,
        "meta_rev_at_epoch": 81316,
        "meta_bstar": 0.00050775945,
        "meta_mean_motion_dot": 1.508e-05,
        "meta_mean_motion_ddot": 0,
        "tle_line1": "1 37928U 99025EPD 25355.37791147  .00001508  00000+0  50776-3 0  9994",
        "tle_line2": "2 37928  98.9148 230.2847 0073076   7.9876 352.2454 14.37132631813161"
      },
      "geometry": {
        "type": "Point",
        "coordinates": [
          38.398793129543215,
          -57.716170710788404
        ]
      }
    }
  ]
}